
# Worst residual: 45.43 km
# MJD 59383.000000 (2021 Jun 18  0:00)
Gaia = 2013-074A = NORAD 39479
1 39479U 13074A   21169.49919926  .00000000  00000-0  00000-0 2 10887
2 39479 030.4376 016.7275 6575802 057.0515 190.2881 00.00962110    09

# Worst residual: 40.99 km
# MJD 59384.000000 (2021 Jun 19  0:00)
Gaia = 2013-074A = NORAD 39479
1 39479U 13074A   21170.49919926  .00000000  00000-0  00000-0 2 10889
2 39479 030.3146 016.2997 6433444 058.1124 190.9147 00.00951583    06

# Worst residual: 38.05 km
# MJD 59385.000000 (2021 Jun 20  0:00)
Gaia = 2013-074A = NORAD 39479
1 39479U 13074A   21171.49919926  .00000000  00000-0  00000-0 2 10880
2 39479 030.1646 015.7432 6302072 059.2133 191.8414 00.00941927    09

# Worst residual: 34.62 km
# MJD 59386.000000 (2021 Jun 21  0:00)
Gaia = 2013-074A = NORAD 39479
1 39479U 13074A   21172.49919926  .00000000  00000-0  00000-0 2 10881
2 39479 030.0482 015.2813 6175803 060.1981 192.9066 00.00932744    08

# Worst residual: 31.81 km
# MJD 59387.000000 (2021 Jun 22  0:00)
Gaia = 2013-074A = NORAD 39479
1 39479U 13074A   21173.49919926  .00000000  00000-0  00000-0 2 10882
2 39479 029.9439 014.8391 6062419 061.1327 194.1172 00.00924702    03

# Worst residual: 29.95 km
# MJD 59388.000000 (2021 Jun 23  0:00)
Gaia = 2013-074A = NORAD 39479
1 39479U 13074A   21174.49919926  .00000000  00000-0  00000-0 2 10883
2 39479 029.8500 014.4130 5965361 062.0418 195.4089 00.00918145    01

# Worst residual: 29.30 km
# MJD 59389.000000 (2021 Jun 24  0:00)
Gaia = 2013-074A = NORAD 39479
1 39479U 13074A   21175.49919926  .00000000  00000-0  00000-0 2 10884
2 39479 029.7647 013.9975 5886529 062.9597 196.7006 00.00913305    04

# Worst residual: 30.00 km
# MJD 59390.000000 (2021 Jun 25  0:00)
Gaia = 2013-074A = NORAD 39479
1 39479U 13074A   21176.49919926  .00000000  00000-0  00000-0 2 10885
2 39479 029.6862 013.5853 5825887 063.9232 197.9073 00.00910263    07

# Worst residual: 31.72 km
# MJD 59391.000000 (2021 Jun 26  0:00)
Gaia = 2013-074A = NORAD 39479
1 39479U 13074A   21177.49919926  .00000000  00000-0  00000-0 2 10886
2 39479 029.6130 013.1691 5781562 064.9648 198.9562 00.00908942    09

# Worst residual: 34.13 km
# MJD 59392.000000 (2021 Jun 27  0:00)
Gaia = 2013-074A = NORAD 39479
1 39479U 13074A   21178.49919926  .00000000  00000-0  00000-0 2 10887
2 39479 029.5441 012.7424 5750395 066.1065 199.7968 00.00909133    01

# Worst residual: 36.91 km
# MJD 59393.000000 (2021 Jun 28  0:00)
Gaia = 2013-074A = NORAD 39479
1 39479U 13074A   21179.49919926  .00000000  00000-0  00000-0 2 10888
2 39479 029.4790 012.3000 5728611 067.3586 200.4050 00.00910539    04

# Worst residual: 39.78 km
# MJD 59394.000000 (2021 Jun 29  0:00)
Gaia = 2013-074A = NORAD 39479
1 39479U 13074A   21180.49919926  .00000000  00000-0  00000-0 2 10880
2 39479 029.4176 011.8385 5712459 068.7212 200.7778 00.00912828    09

# Worst residual: 42.56 km
# MJD 59395.000000 (2021 Jun 30  0:00)
Gaia = 2013-074A = NORAD 39479
1 39479U 13074A   21181.49919926  .00000000  00000-0  00000-0 2 10881
2 39479 029.3604 011.3567 5698643 070.1874 200.9272 00.00915677    06

# Worst residual: 45.12 km
# MJD 59396.000000 (2021 Jul  1  0:00)
Gaia = 2013-074A = NORAD 39479
1 39479U 13074A   21182.49918769  .00000000  00000-0  00000-0 2 10886
2 39479 029.3078 010.8547 5684449 071.7471 200.8727 00.00918789    03

# Worst residual: 47.41 km
# MJD 59397.000000 (2021 Jul  2  0:00)
Gaia = 2013-074A = NORAD 39479
1 39479U 13074A   21183.49918769  .00000000  00000-0  00000-0 2 10887
2 39479 029.2607 010.3340 5667722 073.3893 200.6359 00.00921906    01

# Worst residual: 49.38 km
# MJD 59398.000000 (2021 Jul  3  0:00)
Gaia = 2013-074A = NORAD 39479
1 39479U 13074A   21184.49918769  .00000000  00000-0  00000-0 2 10888
2 39479 029.2197 009.7970 5646743 075.1030 200.2380 00.00924803    08

# Worst residual: 51.03 km
# MJD 59399.000000 (2021 Jul  4  0:00)
Gaia = 2013-074A = NORAD 39479
1 39479U 13074A   21185.49918769  .00000000  00000-0  00000-0 2 10889
2 39479 029.1854 009.2468 5620090 076.8784 199.6985 00.00927277    05

# Worst residual: 52.33 km
# MJD 59400.000000 (2021 Jul  5  0:00)
Gaia = 2013-074A = NORAD 39479
1 39479U 13074A   21186.49918769  .00000000  00000-0  00000-0 2 10880
2 39479 029.1584 008.6871 5586518 078.7063 199.0354 00.00929145    03

# Worst residual: 53.24 km
# MJD 59401.000000 (2021 Jul  6  0:00)
Gaia = 2013-074A = NORAD 39479
1 39479U 13074A   21187.49918769  .00000000  00000-0  00000-0 2 10881
2 39479 029.1393 008.1222 5544869 080.5777 198.2654 00.00930232    05

# Worst residual: 53.74 km
# MJD 59402.000000 (2021 Jul  7  0:00)
Gaia = 2013-074A = NORAD 39479
1 39479U 13074A   21188.49918769  .00000000  00000-0  00000-0 2 10882
2 39479 029.1281 007.5569 5494074 082.4843 197.4059 00.00930374    02

# Worst residual: 53.79 km
# MJD 59403.000000 (2021 Jul  8  0:00)
Gaia = 2013-074A = NORAD 39479
1 39479U 13074A   21189.49918769  .00000000  00000-0  00000-0 2 10883
2 39479 029.1250 006.9964 5433127 084.4170 196.4752 00.00929417    02

# Worst residual: 53.36 km
# MJD 59404.000000 (2021 Jul  9  0:00)
Gaia = 2013-074A = NORAD 39479
1 39479U 13074A   21190.49918769  .00000000  00000-0  00000-0 2 10885
2 39479 029.1298 006.4460 5361175 086.3666 195.4940 00.00927228    00

# Worst residual: 52.38 km
# MJD 59405.000000 (2021 Jul 10  0:00)
Gaia = 2013-074A = NORAD 39479
1 39479U 13074A   21191.49918769  .00000000  00000-0  00000-0 2 10886
2 39479 029.1421 005.9110 5277588 088.3235 194.4855 00.00923702    09

# Worst residual: 50.82 km
# MJD 59406.000000 (2021 Jul 11  0:00)
Gaia = 2013-074A = NORAD 39479
1 39479U 13074A   21192.49918769  .00000000  00000-0  00000-0 2 10887
2 39479 029.1613 005.3964 5182075 090.2771 193.4758 00.00918779    05

# Worst residual: 48.70 km
# MJD 59407.000000 (2021 Jul 12  0:00)
Gaia = 2013-074A = NORAD 39479
1 39479U 13074A   21193.49918769  .00000000  00000-0  00000-0 2 10888
2 39479 029.1866 004.9067 5074777 092.2169 192.4931 00.00912451    09

# Worst residual: 46.06 km
# MJD 59408.000000 (2021 Jul 13  0:00)
Gaia = 2013-074A = NORAD 39479
1 39479U 13074A   21194.49918769  .00000000  00000-0  00000-0 2 10889
2 39479 029.2172 004.4450 4956397 094.1317 191.5675 00.00904781    05

# Worst residual: 42.95 km
# MJD 59409.000000 (2021 Jul 14  0:00)
Gaia = 2013-074A = NORAD 39479
1 39479U 13074A   21195.49918769  .00000000  00000-0  00000-0 2 10880
2 39479 029.2521 004.0132 4828244 096.0105 190.7299 00.00895899    03

# Worst residual: 39.51 km
# MJD 59410.000000 (2021 Jul 15  0:00)
Gaia = 2013-074A = NORAD 39479
1 39479U 13074A   21196.49918769  .00000000  00000-0  00000-0 2 10881
2 39479 029.2904 003.6118 4692346 097.8418 190.0109 00.00886019    02

# Worst residual: 36.86 km
# MJD 59411.000000 (2021 Jul 16  0:00)
Gaia = 2013-074A = NORAD 39479
1 39479U 13074A   21197.49918769  .00000000  00000-0  00000-0 2 10882
2 39479 029.3314 003.2395 4551448 099.6147 189.4393 00.00875427    05

# Worst residual: 36.65 km
# MJD 59412.000000 (2021 Jul 17  0:00)
Gaia = 2013-074A = NORAD 39479
1 39479U 13074A   21198.49918769  .00000000  00000-0  00000-0 2 10883
2 39479 029.3748 002.8936 4409080 101.3193 189.0402 00.00864485    07

# Worst residual: 35.22 km
# MJD 59413.000000 (2021 Jul 18  0:00)
Gaia = 2013-074A = NORAD 39479
1 39479U 13074A   21199.49918769  .00000000  00000-0  00000-0 2 10884
2 39479 029.4203 002.5699 4269455 102.9483 188.8316 00.00853620    06

# Worst residual: 33.00 km
# MJD 59414.000000 (2021 Jul 19  0:00)
Gaia = 2013-074A = NORAD 39479
1 39479U 13074A   21200.49918769  .00000000  00000-0  00000-0 2 10887
2 39479 029.4682 002.2630 4137323 104.4995 188.8202 00.00843300    00

# Worst residual: 29.95 km
# MJD 59415.000000 (2021 Jul 20  0:00)
Gaia = 2013-074A = NORAD 39479
1 39479U 13074A   21201.49918769  .00000000  00000-0  00000-0 2 10888
2 39479 029.5192 001.9666 4017632 105.9793 188.9954 00.00834007    03

# Worst residual: 26.38 km
# MJD 59416.000000 (2021 Jul 21  0:00)
Gaia = 2013-074A = NORAD 39479
1 39479U 13074A   21202.49918769  .00000000  00000-0  00000-0 2 10889
2 39479 029.5744 001.6743 3914962 107.4057 189.3253 00.00826186    06

# Worst residual: 22.67 km
# MJD 59417.000000 (2021 Jul 22  0:00)
Gaia = 2013-074A = NORAD 39479
1 39479U 13074A   21203.49918769  .00000000  00000-0  00000-0 2 10880
2 39479 029.6349 001.3803 3832910 108.8092 189.7550 00.00820192    03

# Worst residual: 22.70 km
# MJD 59418.000000 (2021 Jul 23  0:00)
Gaia = 2013-074A = NORAD 39479
1 39479U 13074A   21204.49918769  .00000000  00000-0  00000-0 2 10881
2 39479 029.7020 001.0802 3773524 110.2299 190.2107 00.00816245    06

# Worst residual: 24.50 km
# MJD 59419.000000 (2021 Jul 24  0:00)
Gaia = 2013-074A = NORAD 39479
1 39479U 13074A   21205.49918769  .00000000  00000-0  00000-0 2 10882
2 39479 029.7768 000.7710 3737104 111.7111 190.6109 00.00814415    05

# Worst residual: 26.96 km
# MJD 59420.000000 (2021 Jul 25  0:00)
Gaia = 2013-074A = NORAD 39479
1 39479U 13074A   21206.49918769  .00000000  00000-0  00000-0 2 10883
2 39479 029.8602 000.4521 3722380 113.2904 190.8809 00.00814626    00

# Worst residual: 29.76 km
# MJD 59421.000000 (2021 Jul 26  0:00)
Gaia = 2013-074A = NORAD 39479
1 39479U 13074A   21207.49918769  .00000000  00000-0  00000-0 2 10884
2 39479 029.9525 000.1242 3726951 114.9919 190.9653 00.00816689    03

# Worst residual: 32.65 km
# MJD 59422.000000 (2021 Jul 27  0:00)
Gaia = 2013-074A = NORAD 39479
1 39479U 13074A   21208.49918769  .00000000  00000-0  00000-0 2 10885
2 39479 030.0539 359.7894 3747789 116.8236 190.8340 00.00820340    03

# Worst residual: 35.38 km
# MJD 59423.000000 (2021 Jul 28  0:00)
Gaia = 2013-074A = NORAD 39479
1 39479U 13074A   21209.49918769  .00000000  00000-0  00000-0 2 10886
2 39479 030.1641 359.4507 3781733 118.7797 190.4798 00.00825278    04

# Worst residual: 37.86 km
# MJD 59424.000000 (2021 Jul 29  0:00)
Gaia = 2013-074A = NORAD 39479
1 39479U 13074A   21210.49918769  .00000000  00000-0  00000-0 2 10888
2 39479 030.2823 359.1114 3825779 120.8449 189.9115 00.00831196    07
